{"type": "FeatureCollection", "features": [ {"type": "Feature", "properties": {"norad_id": 66357, "name": "STARLINK-35817", "group": "last-30-days", "lat": -44.884342788645455, "lon": -98.48616437260152, "alt_km": 414.0263092361283, "timestamp": "2025-12-05T18:53:12.095015+00:00", "meta": {"OBJECT_NAME": "STARLINK-35817", "OBJECT_ID": "2025-254K", "EPOCH": "2025-12-05T06:00:02.000160", "MEAN_MOTION": 15.55249566, "ECCENTRICITY": 0.00016124, "INCLINATION": 53.1595, "RA_OF_ASC_NODE": 312.4066, "ARG_OF_PERICENTER": 94.4018, "MEAN_ANOMALY": 78.2581, "EPHEMERIS_TYPE": 0, "CLASSIFICATION_TYPE": "U", "NORAD_CAT_ID": 66357, "ELEMENT_SET_NO": 999, "REV_AT_EPOCH": 571, "BSTAR": -0.034238201, "MEAN_MOTION_DOT": -0.02098801, "MEAN_MOTION_DDOT": 0}, "tle": {"line1": "1 66357U 25254K   25339.25002315 -.02098801  00000+0 -34238-1 0  9995", "line2": "2 66357  53.1595 312.4066 0001612  94.4018  78.2581 15.55249566  5717"}}, "geometry": {"type": "Point", "coordinates": [-98.48616437260152, -44.884342788645455]}}, {"type": "Feature", "properties": {"norad_id": 66358, "name": "STARLINK-35807", "group": "last-30-days", "lat": -43.84406387998896, "lon": -96.24520870351876, "alt_km": 413.79562778438867, "timestamp": "2025-12-05T18:53:12.095026+00:00", "meta": {"OBJECT_NAME": "STARLINK-35807", "OBJECT_ID": "2025-254L", "EPOCH": "2025-12-05T06:00:02.000160", "MEAN_MOTION": 15.55242012, "ECCENTRICITY": 0.00014554, "INCLINATION": 53.1594, "RA_OF_ASC_NODE": 312.4021, "ARG_OF_PERICENTER": 84.7834, "MEAN_ANOMALY": 89.8004, "EPHEMERIS_TYPE": 0, "CLASSIFICATION_TYPE": "U", "NORAD_CAT_ID": 66358, "ELEMENT_SET_NO": 999, "REV_AT_EPOCH": 571, "BSTAR": -0.03412151, "MEAN_MOTION_DOT": -0.02091804, "MEAN_MOTION_DDOT": 0}, "tle": {"line1": "1 66358U 25254L   25339.25002315 -.02091804  00000+0 -34122-1 0  9994", "line2": "2 66358  53.1594 312.4021 0001455  84.7834  89.8004 15.55242012  5718"}}, "geometry": {"type": "Point", "coordinates": [-96.24520870351876, -43.84406387998896]}}, {"type": "Feature", "properties": {"norad_id": 66359, "name": "STARLINK-35805", "group": "last-30-days", "lat": -42.7602099178715, "lon": -94.07888182019275, "alt_km": 413.7702040780596, "timestamp": "2025-12-05T18:53:12.095035+00:00", "meta": {"OBJECT_NAME": "STARLINK-35805", "OBJECT_ID": "2025-254M", "EPOCH": "2025-12-05T06:00:02.000160", "MEAN_MOTION": 15.55250066, "ECCENTRICITY": 0.00014679, "INCLINATION": 53.1594, "RA_OF_ASC_NODE": 312.3991, "ARG_OF_PERICENTER": 90.2792, "MEAN_ANOMALY": 86.2092, "EPHEMERIS_TYPE": 0, "CLASSIFICATION_TYPE": "U", "NORAD_CAT_ID": 66359, "ELEMENT_SET_NO": 999, "REV_AT_EPOCH": 569, "BSTAR": -0.034154239, "MEAN_MOTION_DOT": -0.02094157, "MEAN_MOTION_DDOT": 0}, "tle": {"line1": "1 66359U 25254M   25339.25002315 -.02094157  00000+0 -34154-1 0  9994", "line2": "2 66359  53.1594 312.3991 0001467  90.2792  86.2092 15.55250066  5695"}}, "geometry": {"type": "Point", "coordinates": [-94.07888182019275, -42.7602099178715]}}, {"type": "Feature", "properties": {"norad_id": 66360, "name": "STARLINK-35823", "group": "last-30-days", "lat": -40.477793540041496, "lon": -89.97525966035909, "alt_km": 413.61312960199575, "timestamp": "2025-12-05T18:53:12.095046+00:00", "meta": {"OBJECT_NAME": "STARLINK-35823", "OBJECT_ID": "2025-254N", "EPOCH": "2025-12-05T06:00:02.000160", "MEAN_MOTION": 15.55248338, "ECCENTRICITY": 0.00014214, "INCLINATION": 53.1594, "RA_OF_ASC_NODE": 312.3904, "ARG_OF_PERICENTER": 90.9695, "MEAN_ANOMALY": 89.3546, "EPHEMERIS_TYPE": 0, "CLASSIFICATION_TYPE": "U", "NORAD_CAT_ID": 66360, "ELEMENT_SET_NO": 999, "REV_AT_EPOCH": 571, "BSTAR": -0.034124423, "MEAN_MOTION_DOT": -0.02092379, "MEAN_MOTION_DDOT": 0}, "tle": {"line1": "1 66360U 25254N   25339.25002315 -.02092379  00000+0 -34124-1 0  9997", "line2": "2 66360  53.1594 312.3904 0001421  90.9695  89.3546 15.55248338  5710"}}, "geometry": {"type": "Point", "coordinates": [-89.97525966035909, -40.477793540041496]}}, {"type": "Feature", "properties": {"norad_id": 66361, "name": "STARLINK-35813", "group": "last-30-days", "lat": -41.63967478378857, "lon": -91.99444751159629, "alt_km": 413.77977803254726, "timestamp": "2025-12-05T18:53:12.095069+00:00", "meta": {"OBJECT_NAME": "STARLINK-35813", "OBJECT_ID": "2025-254P", "EPOCH": "2025-12-05T06:00:02.000160", "MEAN_MOTION": 15.55248422, "ECCENTRICITY": 0.0001622, "INCLINATION": 53.1594, "RA_OF_ASC_NODE": 312.3952, "ARG_OF_PERICENTER": 87.2373, "MEAN_ANOMALY": 91.171, "EPHEMERIS_TYPE": 0, "CLASSIFICATION_TYPE": "U", "NORAD_CAT_ID": 66361, "ELEMENT_SET_NO": 999, "REV_AT_EPOCH": 571, "BSTAR": -0.034178137, "MEAN_MOTION_DOT": -0.02095451, "MEAN_MOTION_DDOT": 0}, "tle": {"line1": "1 66361U 25254P   25339.25002315 -.02095451  00000+0 -34178-1 0  9991", "line2": "2 66361  53.1594 312.3952 0001622  87.2373  91.1710 15.55248422  5717"}}, "geometry": {"type": "Point", "coordinates": [-91.99444751159629, -41.63967478378857]}}, {"type": "Feature", "properties": {"norad_id": 66362, "name": "STARLINK-35822", "group": "last-30-days", "lat": -38.062486861067896, "lon": -86.15355963788215, "alt_km": 413.469600775923, "timestamp": "2025-12-05T18:53:12.095084+00:00", "meta": {"OBJECT_NAME": "STARLINK-35822", "OBJECT_ID": "2025-254Q", "EPOCH": "2025-12-05T06:00:02.000160", "MEAN_MOTION": 15.55249802, "ECCENTRICITY": 0.00015145, "INCLINATION": 53.1594, "RA_OF_ASC_NODE": 312.3825, "ARG_OF_PERICENTER": 84.6096, "MEAN_ANOMALY": 99.551, "EPHEMERIS_TYPE": 0, "CLASSIFICATION_TYPE": "U", "NORAD_CAT_ID": 66362, "ELEMENT_SET_NO": 999, "REV_AT_EPOCH": 571, "BSTAR": -0.034236067, "MEAN_MOTION_DOT": -0.02098634, "MEAN_MOTION_DDOT": 0}, "tle": {"line1": "1 66362U 25254Q   25339.25002315 -.02098634  00000+0 -34236-1 0  9993", "line2": "2 66362  53.1594 312.3825 0001514  84.6096  99.5510 15.55249802  5713"}}, "geometry": {"type": "Point", "coordinates": [-86.15355963788215, -38.062486861067896]}}, {"type": "Feature", "properties": {"norad_id": 66363, "name": "STARLINK-35806", "group": "last-30-days", "lat": -39.28702754597584, "lon": -88.03325137182496, "alt_km": 413.5180010609665, "timestamp": "2025-12-05T18:53:12.095096+00:00", "meta": {"OBJECT_NAME": "STARLINK-35806", "OBJECT_ID": "2025-254R", "EPOCH": "2025-12-05T06:00:02.000160", "MEAN_MOTION": 15.55248143, "ECCENTRICITY": 0.00014829, "INCLINATION": 53.1594, "RA_OF_ASC_NODE": 312.3865, "ARG_OF_PERICENTER": 82.8858, "MEAN_ANOMALY": 99.3599, "EPHEMERIS_TYPE": 0, "CLASSIFICATION_TYPE": "U", "NORAD_CAT_ID": 66363, "ELEMENT_SET_NO": 999, "REV_AT_EPOCH": 569, "BSTAR": -0.034217425, "MEAN_MOTION_DOT": -0.02097481, "MEAN_MOTION_DDOT": 0}, "tle": {"line1": "1 66363U 25254R   25339.25002315 -.02097481  00000+0 -34217-1 0  9992", "line2": "2 66363  53.1594 312.3865 0001482  82.8858  99.3599 15.55248143  5697"}}, "geometry": {"type": "Point", "coordinates": [-88.03325137182496, -39.28702754597584]}}, {"type": "Feature", "properties": {"norad_id": 66364, "name": "STARLINK-35797", "group": "last-30-days", "lat": -36.808828018039186, "lon": -84.33672705181804, "alt_km": 413.41921526312854, "timestamp": "2025-12-05T18:53:12.095106+00:00", "meta": {"OBJECT_NAME": "STARLINK-35797", "OBJECT_ID": "2025-254S", "EPOCH": "2025-12-05T06:00:02.000160", "MEAN_MOTION": 15.55248026, "ECCENTRICITY": 0.00016038, "INCLINATION": 53.1594, "RA_OF_ASC_NODE": 312.3783, "ARG_OF_PERICENTER": 84.9891, "MEAN_ANOMALY": 101.0862, "EPHEMERIS_TYPE": 0, "CLASSIFICATION_TYPE": "U", "NORAD_CAT_ID": 66364, "ELEMENT_SET_NO": 999, "REV_AT_EPOCH": 571, "BSTAR": -0.034146903, "MEAN_MOTION_DOT": -0.02093706, "MEAN_MOTION_DDOT": 0}, "tle": {"line1": "1 66364U 25254S   25339.25002315 -.02093706  00000+0 -34147-1 0  9991", "line2": "2 66364  53.1594 312.3783 0001603  84.9891 101.0862 15.55248026  5719"}}, "geometry": {"type": "Point", "coordinates": [-84.33672705181804, -36.808828018039186]}}, {"type": "Feature", "properties": {"norad_id": 66365, "name": "STARLINK-35827", "group": "last-30-days", "lat": -34.22141022032402, "lon": -80.87424808476983, "alt_km": 413.1814301136792, "timestamp": "2025-12-05T18:53:12.095116+00:00", "meta": {"OBJECT_NAME": "STARLINK-35827", "OBJECT_ID": "2025-254T", "EPOCH": "2025-12-05T06:00:02.000160", "MEAN_MOTION": 15.55247669, "ECCENTRICITY": 0.00014843, "INCLINATION": 53.1596, "RA_OF_ASC_NODE": 312.3709, "ARG_OF_PERICENTER": 85.4917, "MEAN_ANOMALY": 104.4203, "EPHEMERIS_TYPE": 0, "CLASSIFICATION_TYPE": "U", "NORAD_CAT_ID": 66365, "ELEMENT_SET_NO": 999, "REV_AT_EPOCH": 569, "BSTAR": -0.034170011, "MEAN_MOTION_DOT": -0.02094862, "MEAN_MOTION_DDOT": 0}, "tle": {"line1": "1 66365U 25254T   25339.25002315 -.02094862  00000+0 -34170-1 0  9992", "line2": "2 66365  53.1596 312.3709 0001484  85.4917 104.4203 15.55247669  5697"}}, "geometry": {"type": "Point", "coordinates": [-80.87424808476983, -34.22141022032402]}}, {"type": "Feature", "properties": {"norad_id": 66366, "name": "STARLINK-35845", "group": "last-30-days", "lat": -35.52752010430016, "lon": -82.57808248161871, "alt_km": 413.3138631088086, "timestamp": "2025-12-05T18:53:12.095126+00:00", "meta": {"OBJECT_NAME": "STARLINK-35845", "OBJECT_ID": "2025-254U", "EPOCH": "2025-12-05T06:00:02.000160", "MEAN_MOTION": 15.55246796, "ECCENTRICITY": 0.00015306, "INCLINATION": 53.1595, "RA_OF_ASC_NODE": 312.374, "ARG_OF_PERICENTER": 86.6357, "MEAN_ANOMALY": 101.3598, "EPHEMERIS_TYPE": 0, "CLASSIFICATION_TYPE": "U", "NORAD_CAT_ID": 66366, "ELEMENT_SET_NO": 999, "REV_AT_EPOCH": 571, "BSTAR": -0.03416077, "MEAN_MOTION_DOT": -0.02094328, "MEAN_MOTION_DDOT": 0}, "tle": {"line1": "1 66366U 25254U   25339.25002315 -.02094328  00000+0 -34161-1 0  9990", "line2": "2 66366  53.1595 312.3740 0001530  86.6357 101.3598 15.55246796  5711"}}, "geometry": {"type": "Point", "coordinates": [-82.57808248161871, -35.52752010430016]}}]}